{"type": "FeatureCollection", "features": [ {"type": "Feature", "properties": {"norad_id": 40697, "name": "SENTINEL-2A", "group": "resource", "lat": -57.552945286926644, "lon": 70.60820238049459, "alt_km": 796.6711016799882, "timestamp": "2025-12-10T07:43:54.431118+00:00", "meta": {"OBJECT_NAME": "SENTINEL-2A", "OBJECT_ID": "2015-028A", "EPOCH": "2025-12-09T20:15:25.147584", "MEAN_MOTION": 14.30824775, "ECCENTRICITY": 0.000105, "INCLINATION": 98.5692, "RA_OF_ASC_NODE": 56.4177, "ARG_OF_PERICENTER": 89.8448, "MEAN_ANOMALY": 270.2855, "EPHEMERIS_TYPE": 0, "CLASSIFICATION_TYPE": "U", "NORAD_CAT_ID": 40697, "ELEMENT_SET_NO": 999, "REV_AT_EPOCH": 54665, "BSTAR": 3.1539e-05, "MEAN_MOTION_DOT": 3.9e-07, "MEAN_MOTION_DDOT": 0}, "tle": {"line1": "1 40697U 15028A   25343.84404106  .00000039  00000+0  31539-4 0  9992", "line2": "2 40697  98.5692  56.4177 0001050  89.8448 270.2855 14.30824775546650"}}, "geometry": {"type": "Point", "coordinates": [70.60820238049459, -57.552945286926644]}}, {"type": "Feature", "properties": {"norad_id": 40701, "name": "GAOFEN-8", "group": "resource", "lat": 46.70592287157664, "lon": -9.408114685736596, "alt_km": 439.1106004431631, "timestamp": "2025-12-10T07:43:54.431128+00:00", "meta": {"OBJECT_NAME": "GAOFEN-8", "OBJECT_ID": "2015-030A", "EPOCH": "2025-12-09T18:40:07.690656", "MEAN_MOTION": 15.38398709, "ECCENTRICITY": 0.0011461, "INCLINATION": 97.6912, "RA_OF_ASC_NODE": 161.7743, "ARG_OF_PERICENTER": 148.5648, "MEAN_ANOMALY": 211.6283, "EPHEMERIS_TYPE": 0, "CLASSIFICATION_TYPE": "U", "NORAD_CAT_ID": 40701, "ELEMENT_SET_NO": 999, "REV_AT_EPOCH": 58225, "BSTAR": 0.00076563, "MEAN_MOTION_DOT": 0.00029042, "MEAN_MOTION_DDOT": 0}, "tle": {"line1": "1 40701U 15030A   25343.77786679  .00029042  00000+0  76563-3 0  9991", "line2": "2 40701  97.6912 161.7743 0011461 148.5648 211.6283 15.38398709582254"}}, "geometry": {"type": "Point", "coordinates": [-9.408114685736596, 46.70592287157664]}}, {"type": "Feature", "properties": {"norad_id": 40718, "name": "CARBONITE 1 (CBNT-1)", "group": "resource", "lat": -8.628053990685201, "lon": -15.693855673596396, "alt_km": 614.8978893847734, "timestamp": "2025-12-10T07:43:54.431138+00:00", "meta": {"OBJECT_NAME": "CARBONITE 1 (CBNT-1)", "OBJECT_ID": "2015-032D", "EPOCH": "2025-12-09T19:32:46.771872", "MEAN_MOTION": 14.82725798, "ECCENTRICITY": 0.0014146, "INCLINATION": 97.6405, "RA_OF_ASC_NODE": 164.9881, "ARG_OF_PERICENTER": 190.7867, "MEAN_ANOMALY": 169.3046, "EPHEMERIS_TYPE": 0, "CLASSIFICATION_TYPE": "U", "NORAD_CAT_ID": 40718, "ELEMENT_SET_NO": 999, "REV_AT_EPOCH": 56127, "BSTAR": 0.00069043, "MEAN_MOTION_DOT": 5.535e-05, "MEAN_MOTION_DDOT": 0}, "tle": {"line1": "1 40718U 15032D   25343.81443023  .00005535  00000+0  69043-3 0  9995", "line2": "2 40718  97.6405 164.9881 0014146 190.7867 169.3046 14.82725798561277"}}, "geometry": {"type": "Point", "coordinates": [-15.693855673596396, -8.628053990685201]}}, {"type": "Feature", "properties": {"norad_id": 40878, "name": "YAOGAN-27", "group": "resource", "lat": -72.04962310875199, "lon": 120.67005916575907, "alt_km": 1202.4369864860873, "timestamp": "2025-12-10T07:43:54.431148+00:00", "meta": {"OBJECT_NAME": "YAOGAN-27", "OBJECT_ID": "2015-040A", "EPOCH": "2025-12-09T21:18:59.238432", "MEAN_MOTION": 13.16059313, "ECCENTRICITY": 0.0007657, "INCLINATION": 100.1008, "RA_OF_ASC_NODE": 333.6365, "ARG_OF_PERICENTER": 293.7916, "MEAN_ANOMALY": 66.2394, "EPHEMERIS_TYPE": 0, "CLASSIFICATION_TYPE": "U", "NORAD_CAT_ID": 40878, "ELEMENT_SET_NO": 999, "REV_AT_EPOCH": 49276, "BSTAR": 0.00013186, "MEAN_MOTION_DOT": 8e-08, "MEAN_MOTION_DDOT": 0}, "tle": {"line1": "1 40878U 15040A   25343.88818563  .00000008  00000+0  13186-3 0  9990", "line2": "2 40878 100.1008 333.6365 0007657 293.7916  66.2394 13.16059313492760"}}, "geometry": {"type": "Point", "coordinates": [120.67005916575907, -72.04962310875199]}}, {"type": "Feature", "properties": {"norad_id": 40894, "name": "GAOFEN-9 01", "group": "resource", "lat": 66.29966574206506, "lon": -138.7775503069828, "alt_km": 608.5535943865525, "timestamp": "2025-12-10T07:43:54.431158+00:00", "meta": {"OBJECT_NAME": "GAOFEN-9 01", "OBJECT_ID": "2015-047A", "EPOCH": "2025-12-09T21:30:31.788000", "MEAN_MOTION": 14.82412003, "ECCENTRICITY": 0.0028599, "INCLINATION": 97.6545, "RA_OF_ASC_NODE": 22.9745, "ARG_OF_PERICENTER": 43.2747, "MEAN_ANOMALY": 317.0706, "EPHEMERIS_TYPE": 0, "CLASSIFICATION_TYPE": "U", "NORAD_CAT_ID": 40894, "ELEMENT_SET_NO": 999, "REV_AT_EPOCH": 55214, "BSTAR": 0.00026093, "MEAN_MOTION_DOT": 2.054e-05, "MEAN_MOTION_DDOT": 0}, "tle": {"line1": "1 40894U 15047A   25343.89620125  .00002054  00000+0  26093-3 0  9995", "line2": "2 40894  97.6545  22.9745 0028599  43.2747 317.0706 14.82412003552148"}}, "geometry": {"type": "Point", "coordinates": [-138.7775503069828, 66.29966574206506]}}, {"type": "Feature", "properties": {"norad_id": 41026, "name": "YAOGAN-28", "group": "resource", "lat": -77.29504858653826, "lon": -92.36451758753141, "alt_km": 505.18687760999273, "timestamp": "2025-12-10T07:43:54.431167+00:00", "meta": {"OBJECT_NAME": "YAOGAN-28", "OBJECT_ID": "2015-064A", "EPOCH": "2025-12-09T19:34:07.332096", "MEAN_MOTION": 15.24273093, "ECCENTRICITY": 0.0012235, "INCLINATION": 97.2807, "RA_OF_ASC_NODE": 121.6905, "ARG_OF_PERICENTER": 135.5955, "MEAN_ANOMALY": 224.6266, "EPHEMERIS_TYPE": 0, "CLASSIFICATION_TYPE": "U", "NORAD_CAT_ID": 41026, "ELEMENT_SET_NO": 999, "REV_AT_EPOCH": 56180, "BSTAR": 0.00054967, "MEAN_MOTION_DOT": 0.00013392, "MEAN_MOTION_DDOT": 0}, "tle": {"line1": "1 41026U 15064A   25343.81536264  .00013392  00000+0  54967-3 0  9992", "line2": "2 41026  97.2807 121.6905 0012235 135.5955 224.6266 15.24273093561802"}}, "geometry": {"type": "Point", "coordinates": [-92.36451758753141, -77.29504858653826]}}, {"type": "Feature", "properties": {"norad_id": 41038, "name": "YAOGAN-29", "group": "resource", "lat": -4.200219884110254, "lon": 8.079067028311451, "alt_km": 623.5216328525194, "timestamp": "2025-12-10T07:43:54.431178+00:00", "meta": {"OBJECT_NAME": "YAOGAN-29", "OBJECT_ID": "2015-069A", "EPOCH": "2025-12-09T20:24:52.729920", "MEAN_MOTION": 14.82877918, "ECCENTRICITY": 4.06e-05, "INCLINATION": 98.0218, "RA_OF_ASC_NODE": 7.0126, "ARG_OF_PERICENTER": 353.8871, "MEAN_ANOMALY": 6.2337, "EPHEMERIS_TYPE": 0, "CLASSIFICATION_TYPE": "U", "NORAD_CAT_ID": 41038, "ELEMENT_SET_NO": 999, "REV_AT_EPOCH": 54256, "BSTAR": 8.9458e-05, "MEAN_MOTION_DOT": 6.71e-06, "MEAN_MOTION_DDOT": 0}, "tle": {"line1": "1 41038U 15069A   25343.85061030  .00000671  00000+0  89458-4 0  9998", "line2": "2 41038  98.0218   7.0126 0000406 353.8871   6.2337 14.82877918542565"}}, "geometry": {"type": "Point", "coordinates": [8.079067028311451, -4.200219884110254]}}, {"type": "Feature", "properties": {"norad_id": 41167, "name": "KENT RIDGE 1", "group": "resource", "lat": -9.470297976372096, "lon": 87.6871693377975, "alt_km": 502.5856150647887, "timestamp": "2025-12-10T07:43:54.431187+00:00", "meta": {"OBJECT_NAME": "KENT RIDGE 1", "OBJECT_ID": "2015-077B", "EPOCH": "2025-12-09T21:20:01.737600", "MEAN_MOTION": 15.21601567, "ECCENTRICITY": 0.0008532, "INCLINATION": 14.9788, "RA_OF_ASC_NODE": 232.2962, "ARG_OF_PERICENTER": 90.2143, "MEAN_ANOMALY": 269.9156, "EPHEMERIS_TYPE": 0, "CLASSIFICATION_TYPE": "U", "NORAD_CAT_ID": 41167, "ELEMENT_SET_NO": 999, "REV_AT_EPOCH": 55220, "BSTAR": 0.00027132, "MEAN_MOTION_DOT": 7.075e-05, "MEAN_MOTION_DDOT": 0}, "tle": {"line1": "1 41167U 15077B   25343.88890900  .00007075  00000+0  27132-3 0  9994", "line2": "2 41167  14.9788 232.2962 0008532  90.2143 269.9156 15.21601567552207"}}, "geometry": {"type": "Point", "coordinates": [87.6871693377975, -9.470297976372096]}}, {"type": "Feature", "properties": {"norad_id": 41194, "name": "GAOFEN-4", "group": "resource", "lat": -0.1184206868526671, "lon": -58.98626833205796, "alt_km": 35792.43287506431, "timestamp": "2025-12-10T07:43:54.431201+00:00", "meta": {"OBJECT_NAME": "GAOFEN-4", "OBJECT_ID": "2015-083A", "EPOCH": "2025-12-09T19:12:45.993312", "MEAN_MOTION": 1.00270577, "ECCENTRICITY": 0.0003595, "INCLINATION": 0.1632, "RA_OF_ASC_NODE": 80.7608, "ARG_OF_PERICENTER": 107.0027, "MEAN_ANOMALY": 284.9186, "EPHEMERIS_TYPE": 0, "CLASSIFICATION_TYPE": "U", "NORAD_CAT_ID": 41194, "ELEMENT_SET_NO": 999, "REV_AT_EPOCH": 3663, "BSTAR": 0, "MEAN_MOTION_DOT": -3.32e-06, "MEAN_MOTION_DDOT": 0}, "tle": {"line1": "1 41194U 15083A   25343.80053233 -.00000332  00000+0  00000+0 0  9994", "line2": "2 41194   0.1632  80.7608 0003595 107.0027 284.9186  1.00270577 36636"}}, "geometry": {"type": "Point", "coordinates": [-58.98626833205796, -0.1184206868526671]}}, {"type": "Feature", "properties": {"norad_id": 41240, "name": "JASON-3", "group": "resource", "lat": -65.71323641185062, "lon": 63.11401543710975, "alt_km": 1311.8401813336386, "timestamp": "2025-12-10T07:43:54.431212+00:00", "meta": {"OBJECT_NAME": "JASON-3", "OBJECT_ID": "2016-002A", "EPOCH": "2025-12-09T19:10:12.499392", "MEAN_MOTION": 12.87626359, "ECCENTRICITY": 0.0007147, "INCLINATION": 66.0389, "RA_OF_ASC_NODE": 164.0074, "ARG_OF_PERICENTER": 270.6112, "MEAN_ANOMALY": 89.4088, "EPHEMERIS_TYPE": 0, "CLASSIFICATION_TYPE": "U", "NORAD_CAT_ID": 41240, "ELEMENT_SET_NO": 999, "REV_AT_EPOCH": 46286, "BSTAR": 5.513e-05, "MEAN_MOTION_DOT": -4.8e-07, "MEAN_MOTION_DDOT": 0}, "tle": {"line1": "1 41240U 16002A   25343.79875578 -.00000048  00000+0  55130-4 0  9993", "line2": "2 41240  66.0389 164.0074 0007147 270.6112  89.4088 12.87626359462867"}}, "geometry": {"type": "Point", "coordinates": [63.11401543710975, -65.71323641185062]}}]}